{
  "type": "FeatureCollection",
  "features": [
    {
      "type": "Feature",
      "properties": {
        "norad_id": 66926,
        "name": "STARLINK-35942",
        "group": "last-30-days",
        "lat": 53.077967959466726,
        "lon": 125.96119602327808,
        "alt_km": 298.4345268336365,
        "timestamp": "2025-12-16T08:59:41.909643+00:00",
        "meta_object_name": "STARLINK-35942",
        "meta_object_id": "2025-286B",
        "meta_epoch": "2025-12-15T22:00:01.999584",
        "meta_mean_motion": 15.89832875,
        "meta_eccentricity": 6.133e-05,
        "meta_inclination": 53.1571,
        "meta_ra_of_asc_node": 34.5412,
        "meta_arg_of_pericenter": 94.8869,
        "meta_mean_anomaly": 254.9184,
        "meta_ephemeris_type": 0,
        "meta_classification_type": "U",
        "meta_norad_cat_id": 66926,
        "meta_element_set_no": 999,
        "meta_rev_at_epoch": 250,
        "meta_bstar": -0.0044158399,
        "meta_mean_motion_dot": -0.01178101,
        "meta_mean_motion_ddot": 0,
        "tle_line1": "1 66926U 25286B   25349.91668981 -.01178101  00000+0 -44158-2 0  9997",
        "tle_line2": "2 66926  53.1571  34.5412 0000613  94.8869 254.9184 15.89832875  2502"
      },
      "geometry": {
        "type": "Point",
        "coordinates": [
          125.96119602327808,
          53.077967959466726
        ]
      }
    },
    {
      "type": "Feature",
      "properties": {
        "norad_id": 66927,
        "name": "STARLINK-35943",
        "group": "last-30-days",
        "lat": 52.93649534815975,
        "lon": 129.11548816467212,
        "alt_km": 298.2845719802581,
        "timestamp": "2025-12-16T08:59:41.909653+00:00",
        "meta_object_name": "STARLINK-35943",
        "meta_object_id": "2025-286C",
        "meta_epoch": "2025-12-15T22:00:01.999584",
        "meta_mean_motion": 15.89878632,
        "meta_eccentricity": 6.634e-05,
        "meta_inclination": 53.1571,
        "meta_ra_of_asc_node": 34.5377,
        "meta_arg_of_pericenter": 83.7672,
        "meta_mean_anomaly": 267.8651,
        "meta_ephemeris_type": 0,
        "meta_classification_type": "U",
        "meta_norad_cat_id": 66927,
        "meta_element_set_no": 999,
        "meta_rev_at_epoch": 250,
        "meta_bstar": -0.0044169856,
        "meta_mean_motion_dot": -0.01180822,
        "meta_mean_motion_ddot": 0,
        "tle_line1": "1 66927U 25286C   25349.91668981 -.01180822  00000+0 -44170-2 0  9995",
        "tle_line2": "2 66927  53.1571  34.5377 0000663  83.7672 267.8651 15.89878632  2500"
      },
      "geometry": {
        "type": "Point",
        "coordinates": [
          129.11548816467212,
          52.93649534815975
        ]
      }
    },
    {
      "type": "Feature",
      "properties": {
        "norad_id": 66928,
        "name": "STARLINK-35944",
        "group": "last-30-days",
        "lat": 53.1356898767795,
        "lon": 122.72925729311062,
        "alt_km": 298.5180375786449,
        "timestamp": "2025-12-16T08:59:41.909664+00:00",
        "meta_object_name": "STARLINK-35944",
        "meta_object_id": "2025-286D",
        "meta_epoch": "2025-12-15T22:00:01.999584",
        "meta_mean_motion": 15.89789276,
        "meta_eccentricity": 6.144e-05,
        "meta_inclination": 53.1571,
        "meta_ra_of_asc_node": 34.5451,
        "meta_arg_of_pericenter": 84.7232,
        "meta_mean_anomaly": 263.2072,
        "meta_ephemeris_type": 0,
        "meta_classification_type": "U",
        "meta_norad_cat_id": 66928,
        "meta_element_set_no": 999,
        "meta_rev_at_epoch": 250,
        "meta_bstar": -0.0044008479,
        "meta_mean_motion_dot": -0.01172309,
        "meta_mean_motion_ddot": 0,
        "tle_line1": "1 66928U 25286D   25349.91668981 -.01172309  00000+0 -44008-2 0  9997",
        "tle_line2": "2 66928  53.1571  34.5451 0000614  84.7232 263.2072 15.89789276  2505"
      },
      "geometry": {
        "type": "Point",
        "coordinates": [
          122.72925729311062,
          53.1356898767795
        ]
      }
    },
    {
      "type": "Feature",
      "properties": {
        "norad_id": 66929,
        "name": "STARLINK-36169",
        "group": "last-30-days",
        "lat": 52.6875723956755,
        "lon": 132.52301983390544,
        "alt_km": 298.21977938871714,
        "timestamp": "2025-12-16T08:59:41.909677+00:00",
        "meta_object_name": "STARLINK-36169",
        "meta_object_id": "2025-286E",
        "meta_epoch": "2025-12-15T22:00:01.999584",
        "meta_mean_motion": 15.89923643,
        "meta_eccentricity": 6.454e-05,
        "meta_inclination": 53.157,
        "meta_ra_of_asc_node": 34.5333,
        "meta_arg_of_pericenter": 82.2774,
        "meta_mean_anomaly": 271.3581,
        "meta_ephemeris_type": 0,
        "meta_classification_type": "U",
        "meta_norad_cat_id": 66929,
        "meta_element_set_no": 999,
        "meta_rev_at_epoch": 250,
        "meta_bstar": -0.0044265762,
        "meta_mean_motion_dot": -0.01185443,
        "meta_mean_motion_ddot": 0,
        "tle_line1": "1 66929U 25286E   25349.91668981 -.01185443  00000+0 -44266-2 0  9997",
        "tle_line2": "2 66929  53.1570  34.5333 0000645  82.2774 271.3581 15.89923643  2505"
      },
      "geometry": {
        "type": "Point",
        "coordinates": [
          132.52301983390544,
          52.6875723956755
        ]
      }
    },
    {
      "type": "Feature",
      "properties": {
        "norad_id": 66930,
        "name": "STARLINK-36206",
        "group": "last-30-days",
        "lat": 52.38355170537311,
        "lon": 135.52561840980187,
        "alt_km": 298.2083684779509,
        "timestamp": "2025-12-16T08:59:41.909689+00:00",
        "meta_object_name": "STARLINK-36206",
        "meta_object_id": "2025-286F",
        "meta_epoch": "2025-12-15T22:00:01.999584",
        "meta_mean_motion": 15.89970119,
        "meta_eccentricity": 5.606e-05,
        "meta_inclination": 53.1568,
        "meta_ra_of_asc_node": 34.5294,
        "meta_arg_of_pericenter": 95.997,
        "meta_mean_anomaly": 259.4194,
        "meta_ephemeris_type": 0,
        "meta_classification_type": "U",
        "meta_norad_cat_id": 66930,
        "meta_element_set_no": 999,
        "meta_rev_at_epoch": 250,
        "meta_bstar": -0.004438221,
        "meta_mean_motion_dot": -0.01190592,
        "meta_mean_motion_ddot": 0,
        "tle_line1": "1 66930U 25286F   25349.91668981 -.01190592  00000+0 -44382-2 0  9999",
        "tle_line2": "2 66930  53.1568  34.5294 0000560  95.9970 259.4194 15.89970119  2502"
      },
      "geometry": {
        "type": "Point",
        "coordinates": [
          135.52561840980187,
          52.38355170537311
        ]
      }
    },
    {
      "type": "Feature",
      "properties": {
        "norad_id": 66931,
        "name": "STARLINK-36130",
        "group": "last-30-days",
        "lat": 51.93972448808459,
        "lon": 138.93341667726148,
        "alt_km": 298.10257749631455,
        "timestamp": "2025-12-16T08:59:41.909700+00:00",
        "meta_object_name": "STARLINK-36130",
        "meta_object_id": "2025-286G",
        "meta_epoch": "2025-12-15T22:00:01.999584",
        "meta_mean_motion": 15.90015524,
        "meta_eccentricity": 6.464e-05,
        "meta_inclination": 53.1569,
        "meta_ra_of_asc_node": 34.5252,
        "meta_arg_of_pericenter": 78.9752,
        "meta_mean_anomaly": 278.5029,
        "meta_ephemeris_type": 0,
        "meta_classification_type": "U",
        "meta_norad_cat_id": 66931,
        "meta_element_set_no": 999,
        "meta_rev_at_epoch": 250,
        "meta_bstar": -0.0044454999,
        "meta_mean_motion_dot": -0.0119478,
        "meta_mean_motion_ddot": 0,
        "tle_line1": "1 66931U 25286G   25349.91668981 -.01194780  00000+0 -44455-2 0  9994",
        "tle_line2": "2 66931  53.1569  34.5252 0000646  78.9752 278.5029 15.90015524  2503"
      },
      "geometry": {
        "type": "Point",
        "coordinates": [
          138.93341667726148,
          51.93972448808459
        ]
      }
    },
    {
      "type": "Feature",
      "properties": {
        "norad_id": 66932,
        "name": "STARLINK-36177",
        "group": "last-30-days",
        "lat": 51.41473315768055,
        "lon": 142.17934673550744,
        "alt_km": 298.0548977512826,
        "timestamp": "2025-12-16T08:59:41.909710+00:00",
        "meta_object_name": "STARLINK-36177",
        "meta_object_id": "2025-286H",
        "meta_epoch": "2025-12-15T22:00:01.999584",
        "meta_mean_motion": 15.90065847,
        "meta_eccentricity": 6.626e-05,
        "meta_inclination": 53.1568,
        "meta_ra_of_asc_node": 34.521,
        "meta_arg_of_pericenter": 80.0123,
        "meta_mean_anomaly": 279.4708,
        "meta_ephemeris_type": 0,
        "meta_classification_type": "U",
        "meta_norad_cat_id": 66932,
        "meta_element_set_no": 999,
        "meta_rev_at_epoch": 250,
        "meta_bstar": -0.0044752662,
        "meta_mean_motion_dot": -0.0120447,
        "meta_mean_motion_ddot": 0,
        "tle_line1": "1 66932U 25286H   25349.91668981 -.01204470  00000+0 -44753-2 0  9994",
        "tle_line2": "2 66932  53.1568  34.5210 0000662  80.0123 279.4708 15.90065847  2508"
      },
      "geometry": {
        "type": "Point",
        "coordinates": [
          142.17934673550744,
          51.41473315768055
        ]
      }
    }
  ]
}